{
  "properties": {
    "path": "brands/amenity/parking",
    "skipCollection": true,
    "preserveTags": ["^name"],
    "exclude": {
      "generic": [
        "^parking( lot)?$",
        "^visitor parking$",
        "^автостоянка$",
        "^парковка$",
        "^停车场$"
      ],
      "named": ["^lot \\d+$"]
    }
  },
  "items": [
    {
      "displayName": "National Car Parks",
      "locationSet": {"include": ["gb"]},
      "tags": {
        "amenity": "parking",
        "brand": "National Car Parks",
        "brand:wikidata": "Q6971273",
        "fee": "yes"
      }
    },
    {
      "displayName": "D-Parking",
      "id": "dparking-9f17fa",
      "locationSet": {"include": ["jp"]},
      "tags": {
        "amenity": "parking",
        "brand": "D-Parking",
        "brand:en": "D-Parking",
        "brand:ja": "Dパーキング",
        "brand:wikidata": "Q117337694",
        "fee": "yes",
        "name": "Dパーキング",
        "name:en": "D-Parking",
        "name:ja": "Dパーキング"
      }
    },
    {
      "displayName": "JustPark",
      "id": "justpark-aa7823",
      "locationSet": {"include": ["gb"]},
      "tags": {
        "amenity": "parking",
        "brand": "JustPark",
        "brand:wikidata": "Q17143517",
        "fee": "yes"
      }
    }
  ]
}
